{
  "type": "FeatureCollection",
  "features": [
    {
      "type": "Feature",
      "properties": {
        "zone_id": "ZONE-NE01",
        "name": "Fancy Bazaar / Panbazar",
        "ward": "Ward 14 (Guwahati)",
        "elevation": 52.0,
        "population": 65000,
        "center": [
          26.185,
          91.742
        ]
      },
      "geometry": {
        "type": "Polygon",
        "coordinates": [
          [
            [
              91.735,
              26.18
            ],
            [
              91.75,
              26.18
            ],
            [
              91.75,
              26.19
            ],
            [
              91.735,
              26.19
            ],
            [
              91.735,
              26.18
            ]
          ]
        ]
      }
    },
    {
      "type": "Feature",
      "properties": {
        "zone_id": "ZONE-NE02",
        "name": "Dispur / Secretariat Capital Zone",
        "ward": "Ward 22 (Guwahati)",
        "elevation": 58.0,
        "population": 85000,
        "center": [
          26.14,
          91.79
        ]
      },
      "geometry": {
        "type": "Polygon",
        "coordinates": [
          [
            [
              91.78,
              26.13
            ],
            [
              91.8,
              26.13
            ],
            [
              91.8,
              26.15
            ],
            [
              91.78,
              26.15
            ],
            [
              91.78,
              26.13
            ]
          ]
        ]
      }
    },
    {
      "type": "Feature",
      "properties": {
        "zone_id": "ZONE-NE03",
        "name": "Brahmaputra River Bank & Bharalu Basin",
        "ward": "Ward 08 (Guwahati)",
        "elevation": 51.5,
        "population": 72000,
        "center": [
          26.19,
          91.725
        ]
      },
      "geometry": {
        "type": "Polygon",
        "coordinates": [
          [
            [
              91.715,
              26.185
            ],
            [
              91.735,
              26.185
            ],
            [
              91.735,
              26.2
            ],
            [
              91.715,
              26.2
            ],
            [
              91.715,
              26.185
            ]
          ]
        ]
      }
    },
    {
      "type": "Feature",
      "properties": {
        "zone_id": "ZONE-NE04",
        "name": "Gauhati University / Jalukbari Junction",
        "ward": "Ward 02 (Guwahati)",
        "elevation": 54.0,
        "population": 58000,
        "center": [
          26.155,
          91.665
        ]
      },
      "geometry": {
        "type": "Polygon",
        "coordinates": [
          [
            [
              91.65,
              26.145
            ],
            [
              91.68,
              26.145
            ],
            [
              91.68,
              26.165
            ],
            [
              91.65,
              26.165
            ],
            [
              91.65,
              26.145
            ]
          ]
        ]
      }
    },
    {
      "type": "Feature",
      "properties": {
        "zone_id": "ZONE-NE05",
        "name": "Majuli River Island Surge Zone",
        "ward": "Majuli District",
        "elevation": 84.0,
        "population": 168000,
        "center": [
          26.95,
          94.17
        ]
      },
      "geometry": {
        "type": "Polygon",
        "coordinates": [
          [
            [
              94.1,
              26.9
            ],
            [
              94.24,
              26.9
            ],
            [
              94.24,
              27.0
            ],
            [
              94.1,
              27.0
            ],
            [
              94.1,
              26.9
            ]
          ]
        ]
      }
    },
    {
      "type": "Feature",
      "properties": {
        "zone_id": "ZONE-NE06",
        "name": "Kaziranga Flood Corridor (NH-27)",
        "ward": "Nagaon / Golaghat",
        "elevation": 65.0,
        "population": 92000,
        "center": [
          26.58,
          93.17
        ]
      },
      "geometry": {
        "type": "Polygon",
        "coordinates": [
          [
            [
              93.05,
              26.5
            ],
            [
              93.3,
              26.5
            ],
            [
              93.3,
              26.65
            ],
            [
              93.05,
              26.65
            ],
            [
              93.05,
              26.5
            ]
          ]
        ]
      }
    }
  ]
}